NORAD_CAT_ID,OBJECT_NAME,OBJECT_TYPE,EPOCH,MEAN_MOTION,ECCENTRICITY,INCLINATION,RA_OF_ASC_NODE,ARG_OF_PERICENTER,MEAN_ANOMALY,BSTAR,MEAN_MOTION_DOT,MEAN_MOTION_DDOT,TLE_LINE0,TLE_LINE1,TLE_LINE2,SEMIMAJOR_AXIS,PERIOD,APOGEE,PERIGEE,DECAYED
52575.0,STARLINK-3920,PAYLOAD,2024-06-14 18:16:22,15.08836927,0.000128,53.2171,80.4459,96.7173,263.3964,7.1047e-05,8.43e-06,0.0,0 STARLINK-3920,1 52575U 22051AR  24166.76136845  .00000843  00000-0  71047-4 0  9991,2 52575  53.2171  80.4459 0001280  96.7173 263.3964 15.08836927116032,6917.89,95.438,540.64,538.869,0.0
52575.0,STARLINK-3920,PAYLOAD,2024-06-15 11:45:36,15.08845524,0.0001441,53.2184,77.1758,92.7575,267.3582,7.6538e-05,9.31e-06,0.0,0 STARLINK-3920,1 52575U 22051AR  24167.49000260  .00000931  00000-0  76538-4 0  9991,2 52575  53.2184  77.1758 0001441  92.7575 267.3582 15.08845524116215,6917.864,95.437,540.725,538.732,0.0
52575.0,STARLINK-3920,PAYLOAD,2024-06-15 22:53:17,15.08847429,0.000143,53.2181,75.0954,90.7007,269.4149,9.4189e-05,1.212e-05,0.0,0 STARLINK-3920,1 52575U 22051AR  24167.95367965  .00001212  00000-0  94189-4 0  9995,2 52575  53.2181  75.0954 0001430  90.7007 269.4149 15.08847429116211,6917.858,95.437,540.712,538.733,0.0
52575.0,STARLINK-3920,PAYLOAD,2024-06-16 00:28:40,15.08851425,0.0001437,53.2183,74.7961,98.1437,261.9718,0.00012776,1.747e-05,0.0,0 STARLINK-3920,1 52575U 22051AR  24168.01991553  .00001747  00000-0  12776-3 0  9993,2 52575  53.2183  74.7961 0001437  98.1437 261.9718 15.08851425116224,6917.845,95.437,540.705,538.716,0.0
52575.0,STARLINK-3920,PAYLOAD,2024-06-16 22:44:05,15.08837538,0.0001328,53.2173,70.634,94.3659,265.7485,1.5795e-05,-3.7e-07,0.0,0 STARLINK-3920,1 52575U 22051AR  24168.94728812 -.00000037  00000-0  15795-4 0  9998,2 52575  53.2173  70.6340 0001328  94.3659 265.7485 15.08837538116369,6917.888,95.438,540.672,538.834,0.0
52575.0,STARLINK-3920,PAYLOAD,2024-06-17 22:34:53,15.08836962,0.0001342,53.2174,66.1746,87.9379,272.1767,-1.773e-05,-5.7e-06,0.0,0 STARLINK-3920,1 52575U 22051AR  24169.94089188 -.00000570  00000-0 -17730-4 0  9999,2 52575  53.2174  66.1746 0001342  87.9379 272.1767 15.08836962116515,6917.89,95.438,540.683,538.826,0.0
52575.0,STARLINK-3920,PAYLOAD,2024-06-18 03:21:02,15.08840173,0.0001307,53.2177,65.2832,91.5246,268.5895,7.5681e-06,-1.67e-06,0.0,0 STARLINK-3920,1 52575U 22051AR  24170.13960909 -.00000167  00000-0  75681-5 0  9992,2 52575  53.2177  65.2832 0001307  91.5246 268.5895 15.08840173116610,6917.88,95.438,540.649,538.841,0.0
52575.0,STARLINK-3920,PAYLOAD,2024-06-18 09:42:34,15.08844271,0.0001305,53.2175,64.0924,85.2331,274.881,-1.4261e-05,-5.15e-06,0.0,0 STARLINK-3920,1 52575U 22051AR  24170.40456653 -.00000515  00000-0 -14261-4 0  9992,2 52575  53.2175  64.0924 0001305  85.2331 274.8810 15.08844271116586,6917.867,95.437,540.635,538.83,0.0
52575.0,STARLINK-3920,PAYLOAD,2024-06-18 20:50:16,15.08838813,0.0001244,53.217,62.0098,79.0742,281.039,0.00010295,1.351e-05,0.0,0 STARLINK-3920,1 52575U 22051AR  24170.86824804  .00001351  00000-0  10295-3 0  9998,2 52575  53.2170  62.0098 0001244  79.0742 281.0390 15.08838813116656,6917.884,95.438,540.61,538.888,0.0
52575.0,STARLINK-3920,PAYLOAD,2024-06-19 09:33:21,15.08842303,0.000133,53.2177,59.63,75.0819,285.032,9.1207e-05,1.164e-05,0.0,0 STARLINK-3920,1 52575U 22051AR  24171.39816563  .00001164  00000-0  91207-4 0  9995,2 52575  53.2177  59.6300 0001330  75.0819 285.0320 15.08842303116801,6917.873,95.437,540.658,538.818,0.0
52575.0,STARLINK-3920,PAYLOAD,2024-06-19 20:41:04,15.08835158,0.0002078,53.2184,57.5512,85.1601,274.9629,5.0567e-05,5.17e-06,0.0,0 STARLINK-3920,1 52575U 22051AR  24171.86185475  .00000517  00000-0  50567-4 0  9993,2 52575  53.2184  57.5512 0002078  85.1601 274.9629 15.08835158116878,6917.895,95.438,541.198,538.323,0.0
52575.0,STARLINK-3920,PAYLOAD,2024-06-19 22:16:27,15.08831967,0.0001556,53.218,57.2519,77.9404,282.1762,-4.1233e-05,-9.44e-06,0.0,0 STARLINK-3920,1 52575U 22051AR  24171.92809884 -.00000944  00000-0 -41233-4 0  9993,2 52575  53.2180  57.2519 0001556  77.9404 282.1762 15.08831967116815,6917.905,95.438,540.846,538.694,0.0
52575.0,STARLINK-3920,PAYLOAD,2024-06-20 22:07:13,15.0884645,0.0001326,53.218,52.7939,89.7389,270.3755,-2.3439e-05,-6.61e-06,0.0,0 STARLINK-3920,1 52575U 22051AR  24172.92168978 -.00000661  00000-0 -23439-4 0  9990,2 52575  53.2180  52.7939 0001326  89.7389 270.3755 15.08846450116969,6917.861,95.437,540.643,538.808,0.0
52575.0,STARLINK-3920,PAYLOAD,2024-06-20 23:42:36,15.08848266,0.0001309,53.2181,52.4963,88.6077,271.5065,-5.6966e-06,-3.79e-06,0.0,0 STARLINK-3920,1 52575U 22051AR  24172.98792796 -.00000379  00000-0 -56966-5 0  9995,2 52575  53.2181  52.4963 0001309  88.6077 271.5065 15.08848266117041,6917.855,95.437,540.626,538.815,0.0
52575.0,STARLINK-3920,PAYLOAD,2024-06-21 20:22:36,15.0887084,0.0001413,53.2177,48.6303,82.1588,277.9564,-0.00036483,-6.094e-05,0.0,0 STARLINK-3920,1 52575U 22051AR  24173.84903859 -.00006094  00000-0 -36483-3 0  9995,2 52575  53.2177  48.6303 0001413  82.1588 277.9564 15.08870840117174,6917.786,95.436,540.629,538.674,0.0
52575.0,STARLINK-3920,PAYLOAD,2024-06-21 21:58:00,15.08842315,0.0001246,53.2173,48.3331,94.4334,265.6801,9.4568e-05,1.218e-05,0.0,0 STARLINK-3920,1 52575U 22051AR  24173.91528852  .00001218  00000-0  94568-4 0  9999,2 52575  53.2173  48.3331 0001246  94.4334 265.6801 15.08842315117115,6917.873,95.437,540.6,538.876,0.0
52575.0,STARLINK-3920,PAYLOAD,2024-06-22 20:13:25,15.08837378,0.0001188,53.217,44.1706,72.9783,287.1339,2.5348e-05,1.16e-06,0.0,0 STARLINK-3920,1 52575U 22051AR  24174.84265536  .00000116  00000-0  25348-4 0  9995,2 52575  53.2170  44.1706 0001188  72.9783 287.1339 15.08837378117327,6917.888,95.438,540.575,538.932,0.0
52575.0,STARLINK-3920,PAYLOAD,2024-06-22 21:48:48,15.08837557,0.0001131,53.2169,43.8727,86.0886,274.0236,2.1389e-05,5.3e-07,0.0,0 STARLINK-3920,1 52575U 22051AR  24174.90889466  .00000053  00000-0  21389-4 0  9997,2 52575  53.2169  43.8727 0001131  86.0886 274.0236 15.08837557117265,6917.888,95.438,540.535,538.97,0.0
52575.0,STARLINK-3920,PAYLOAD,2024-06-23 00:59:34,15.08841195,0.000118,53.2169,43.2773,87.5184,272.5944,4.2845e-05,3.94e-06,0.0,0 STARLINK-3920,1 52575U 22051AR  24175.04137187  .00000394  00000-0  42845-4 0  9997,2 52575  53.2169  43.2773 0001180  87.5184 272.5944 15.08841195117285,6917.877,95.437,540.558,538.925,0.0
52575.0,STARLINK-3920,PAYLOAD,2024-06-23 20:04:13,15.08768028,0.0001815,53.2177,39.7078,82.6878,277.432,0.0010614,0.00016611,0.0,0 STARLINK-3920,1 52575U 22051AR  24175.83626806  .00016611  00000-0  10614-2 0  9991,2 52575  53.2177  39.7078 0001815  82.6878 277.4320 15.08768028117479,6918.1,95.442,541.221,538.71,0.0
52575.0,STARLINK-3920,PAYLOAD,2024-06-23 21:39:36,15.08788446,0.0001684,53.2176,39.4108,80.6848,279.4334,0.00082647,0.00012871,0.0,0 STARLINK-3920,1 52575U 22051AR  24175.90250435  .00012871  00000-0  82647-3 0  9990,2 52575  53.2176  39.4108 0001684  80.6848 279.4334 15.08788446117415,6918.038,95.441,541.068,538.738,0.0
52575.0,STARLINK-3920,PAYLOAD,2024-06-24 00:50:21,15.0883804,0.0001391,53.2178,38.8149,87.1849,272.9302,0.00018133,2.599e-05,0.0,0 STARLINK-3920,1 52575U 22051AR  24176.03497050  .00002599  00000-0  18133-3 0  9996,2 52575  53.2178  38.8149 0001391  87.1849 272.9302 15.08838040117502,6917.886,95.438,540.714,538.789,0.0
52575.0,STARLINK-3920,PAYLOAD,2024-06-24 19:54:59,15.08836286,0.0001431,53.2186,35.2447,83.4245,276.691,-2.1248e-05,-6.26e-06,0.0,0 STARLINK-3920,1 52575U 22051AR  24176.82985871 -.00000626  00000-0 -21248-4 0  9999,2 52575  53.2186  35.2447 0001431  83.4245 276.6910 15.08836286117626,6917.892,95.438,540.747,538.767,0.0
52575.0,STARLINK-3920,PAYLOAD,2024-06-25 19:45:46,15.08844093,0.0001359,53.2175,30.7823,103.7597,256.3546,-2.9582e-07,-2.93e-06,0.0,0 STARLINK-3920,1 52575U 22051AR  24177.82345344 -.00000293  00000-0 -29582-6 0  9996,2 52575  53.2175  30.7823 0001359 103.7597 256.3546 15.08844093117778,6917.868,95.437,540.673,538.793,0.0
52575.0,STARLINK-3920,PAYLOAD,2024-06-27 00:22:43,15.0883675,0.0001338,53.2177,25.4352,97.67,262.4444,4.3533e-05,4.05e-06,0.0,0 STARLINK-3920,1 52575U 22051AR  24179.01577983  .00000405  00000-0  43533-4 0  9998,2 52575  53.2177  25.4352 0001338  97.6700 262.4444 15.08836750117958,6917.89,95.438,540.681,538.83,0.0
52575.0,STARLINK-3920,PAYLOAD,2024-06-27 21:02:43,15.08842296,0.0001382,53.2188,21.567,76.1455,283.9691,3.5779e-05,2.82e-06,0.0,0 STARLINK-3920,1 52575U 22051AR  24179.87689771  .00000282  00000-0  35779-4 0  9997,2 52575  53.2188  21.5670 0001382  76.1455 283.9691 15.08842296118010,6917.873,95.437,540.694,538.782,0.0
52575.0,STARLINK-3920,PAYLOAD,2024-06-28 06:35:02,15.08849585,0.0001417,53.2187,19.783,79.3723,280.7429,-4.8469e-05,-1.059e-05,0.0,0 STARLINK-3920,1 52575U 22051AR  24180.27433380 -.00001059  00000-0 -48469-4 0  9991,2 52575  53.2187  19.7830 0001417  79.3723 280.7429 15.08849585118144,6917.851,95.437,540.696,538.736,0.0
52575.0,STARLINK-3920,PAYLOAD,2024-06-28 20:53:30,15.08851122,0.0001384,53.2184,17.1062,84.5806,275.5344,0.00015864,2.238e-05,0.0,0 STARLINK-3920,1 52575U 22051AR  24180.87048965  .00002238  00000-0  15864-3 0  9998,2 52575  53.2184  17.1062 0001384  84.5806 275.5344 15.08851122118163,6917.846,95.437,540.669,538.754,0.0
52575.0,STARLINK-3920,PAYLOAD,2024-06-29 12:47:23,15.08824207,0.0001318,53.2184,14.1349,98.6335,261.4806,-8.0001e-05,-1.56e-05,0.0,0 STARLINK-3920,1 52575U 22051AR  24181.53291372 -.00001560  00000-0 -80001-4 0  9999,2 52575  53.2184  14.1349 0001318  98.6335 261.4806 15.08824207118338,6917.929,95.439,540.705,538.882,0.0
52575.0,STARLINK-3920,PAYLOAD,2024-06-29 19:08:55,15.08840296,0.0001158,53.218,12.9406,119.6731,240.4377,8.637e-05,1.087e-05,0.0,0 STARLINK-3920,1 52575U 22051AR  24181.79785944  .00001087  00000-0  86370-4 0  9997,2 52575  53.2180  12.9406 0001158 119.6731 240.4377 15.08840296118370,6917.879,95.438,540.546,538.943,0.0
